     2.10           N: GPS NAV DATA                         RINEX VERSION / TYPE
CHC RINEX 2.1.5     CHC                 20181126 091944 UTC PGM / RUN BY / DATE 
Format: BD950/970                                           COMMENT             
   1.1176E-008-1.4901E-008-5.9605E-008 1.1921E-007          ION ALPHA           
   9.8304E+004-1.1469E+005-1.9661E+005 7.2090E+005          ION BETA            
     9.3132257462e-010 -1.7763568394e-015   589824     2028 DELTA-UTC: A0,A1,T,W
    18                                                      LEAP SECONDS        
                                                            END OF HEADER       
30 18 11 22 16  0  0.0 -8.6580403149e-006 -5.7980287238e-012  0.0000000000e+000
     6.8000000000e+001  1.4309375000e+002  4.6455506487e-009 -1.9355776680e+000
     7.3257833719e-006  3.5859775962e-003  9.5907598734e-006  5.1536699467e+003
     4.0320000000e+005 -1.3038516045e-008 -2.6983928879e+000 -5.4016709328e-008
     9.4294125379e-001  1.8440625000e+002 -2.9860773988e+000 -8.1481965479e-009
     2.3215252723e-010  0.0000000000e+000  2.0280000000e+003  0.0000000000e+000
     2.4000000000e+000  0.0000000000e+000  3.7252902985e-009  6.8000000000e+001
     3.9805800000e+005  0.0000000000e+000
 2 18 11 22 16  0  0.0 -6.5781641752e-005 -1.0459189070e-011  0.0000000000e+000
     9.9000000000e+001  3.8437500000e+000  4.6380503363e-009 -9.4987437513e-001
     4.8987567425e-007  1.8416576670e-002  1.1557713151e-005  5.1536017094e+003
     4.0320000000e+005 -1.4901161194e-007  3.3663701218e-001  3.4645199776e-007
     9.5274200032e-001  1.5906250000e+002 -1.8131615330e+000 -8.1642686460e-009
     5.8538152635e-010  0.0000000000e+000  2.0280000000e+003  0.0000000000e+000
     2.4000000000e+000  0.0000000000e+000 -2.0489096642e-008  9.9000000000e+001
     3.9805200000e+005  0.0000000000e+000
 5 18 11 22 16  0  0.0 -3.5390257835e-008  2.2737367544e-013  0.0000000000e+000
     1.0400000000e+002  9.8750000000e+000  5.5116581541e-009  1.6156777743e+000
     5.8859586716e-007  5.5844846647e-003  4.3939799070e-006  5.1535688934e+003
     4.0320000000e+005 -1.4156103134e-007  1.4198563893e+000  1.0989606380e-007
     9.4823077058e-001  2.9062500000e+002  7.2061748248e-001 -8.5646424660e-009
     1.4750614422e-010  0.0000000000e+000  2.0280000000e+003  0.0000000000e+000
     2.4000000000e+000  0.0000000000e+000 -1.1175870895e-008  1.0400000000e+002
     3.9805800000e+005  0.0000000000e+000
 7 18 11 22 15 59 44.0  8.3828810602e-005 -6.9348971010e-012  0.0000000000e+000
     1.5000000000e+001  1.4303125000e+002  4.2673206082e-009 -1.9216900915e+000
     7.2382390499e-006  1.2100048480e-002  9.9893659353e-006  5.1536396008e+003
     4.0318400000e+005  8.3819031715e-008 -2.7293275809e+000 -1.6950070858e-007
     9.5742924543e-001  1.8525000000e+002 -2.4822382948e+000 -7.8274689026e-009
     2.9894102352e-010  0.0000000000e+000  2.0280000000e+003  0.0000000000e+000
     2.4000000000e+000  0.0000000000e+000 -1.1175870895e-008  1.5000000000e+001
     3.9870600000e+005  0.0000000000e+000
13 18 11 22 15 59 44.0 -8.3762221038e-005  1.1368683772e-012  0.0000000000e+000
     0.0000000000e+000 -1.2875000000e+001  4.3423237324e-009 -2.5113008535e-001
    -5.3830444813e-007  3.6330909934e-003  1.1108815670e-005  5.1536703510e+003
     4.0318400000e+005 -5.4016709328e-008  2.6117921752e+000  2.0489096642e-008
     9.6834028973e-001  1.6703125000e+002  1.4138867589e+000 -7.8831855092e-009
    -6.4216960608e-010  0.0000000000e+000  2.0280000000e+003  0.0000000000e+000
     2.4000000000e+000  0.0000000000e+000 -1.1175870895e-008  0.0000000000e+000
     3.9808800000e+005  0.0000000000e+000
16 18 11 22 15 59 44.0 -2.5345943868e-006 -2.0463630790e-012  0.0000000000e+000
     8.0000000000e+000 -2.6562500000e+000  4.3698248779e-009  1.8541529599e+000
    -2.0116567612e-007  1.0161554092e-002  5.6624412537e-007  5.1537283325e+003
     4.0318400000e+005 -2.0675361156e-007 -1.6137883731e+000  4.6566128731e-008
     9.8494822522e-001  3.8531250000e+002  5.1965319581e-001 -8.4214222146e-009
    -9.0718064486e-011  0.0000000000e+000  2.0280000000e+003  0.0000000000e+000
     2.4000000000e+000  0.0000000000e+000 -1.0710209608e-008  8.0000000000e+000
     3.9808800000e+005  0.0000000000e+000
 9 18 11 22 16  0  0.0  4.9019092694e-004 -3.4106051316e-012  0.0000000000e+000
     9.1000000000e+001 -2.5968750000e+001  4.7019815707e-009  1.3509922871e+000
    -1.4863908291e-006  1.3889119728e-003  1.0829418898e-005  5.1537859325e+003
     4.0320000000e+005 -1.4901161194e-008  2.4774278749e+000 -6.8917870522e-008
     9.5261227459e-001  1.6456250000e+002  1.6811485429e+000 -8.0156910286e-009
    -7.5896018517e-010  0.0000000000e+000  2.0280000000e+003  0.0000000000e+000
     2.4000000000e+000  0.0000000000e+000  1.3969838619e-009  9.1000000000e+001
     3.9805800000e+005  0.0000000000e+000
23 18 11 22 16  0  0.0 -2.0552705973e-004  1.0231815395e-012  0.0000000000e+000
     6.7000000000e+001 -2.2687500000e+001  5.0180661655e-009 -4.9655885418e-001
    -1.1920928955e-006  1.2632685248e-002  1.0417774320e-005  5.1536923180e+003
     4.0320000000e+005 -3.7252902985e-009  2.4741115478e+000  1.6018748283e-007
     9.4342084954e-001  1.6840625000e+002 -2.3191353140e+000 -8.3639198194e-009
    -7.7467512547e-010  0.0000000000e+000  2.0280000000e+003  0.0000000000e+000
     2.4000000000e+000  0.0000000000e+000 -2.0023435354e-008  6.7000000000e+001
     3.9805200000e+005  0.0000000000e+000
27 18 11 22 16  0  0.0 -2.1640677005e-005 -5.3432813729e-012  0.0000000000e+000
     1.0600000000e+002 -1.4043750000e+002  3.9344495999e-009  9.1448643653e-001
    -7.3332339525e-006  6.1987605877e-003  8.7693333626e-006  5.1537070122e+003
     4.0320000000e+005 -1.8626451492e-009 -6.5381059713e-001  9.1269612312e-008
     9.7830397753e-001  2.2009375000e+002  4.3290810486e-001 -7.9414022198e-009
    -3.7251551677e-010  0.0000000000e+000  2.0280000000e+003  0.0000000000e+000
     2.4000000000e+000  0.0000000000e+000  1.8626451492e-009  1.0600000000e+002
     4.0129800000e+005  0.0000000000e+000
